STARLINK-30092          
1 57467U 23107L   26068.08801585 -.00004529  00000+0 -15913-3 0  9992
2 57467  43.0022 339.6211 0002381 265.1319  94.9260 15.26757276145051
PELICAN-6               
1 66703U 25276AP  26068.70709364  .00077979  00000+0  29726-2 0  9998
2 66703  97.4276 144.2072 0003569 157.8575 202.2819 15.26377980 15334
